{"type": "FeatureCollection", "features": [ {"type": "Feature", "properties": {"norad_id": 38755, "name": "SPOT 6", "group": "resource", "lat": -32.06213926074858, "lon": -139.85545654011773, "alt_km": 704.0853895359378, "timestamp": "2025-12-06T09:34:16.574816+00:00", "meta": {"OBJECT_NAME": "SPOT 6", "OBJECT_ID": "2012-047A", "EPOCH": "2025-12-05T22:43:21.066240", "MEAN_MOTION": 14.58593232, "ECCENTRICITY": 0.00010639, "INCLINATION": 98.1582, "RA_OF_ASC_NODE": 44.8561, "ARG_OF_PERICENTER": 101.3435, "MEAN_ANOMALY": 258.7884, "EPHEMERIS_TYPE": 0, "CLASSIFICATION_TYPE": "U", "NORAD_CAT_ID": 38755, "ELEMENT_SET_NO": 999, "REV_AT_EPOCH": 70488, "BSTAR": 0.00018228633, "MEAN_MOTION_DOT": 8.03e-06, "MEAN_MOTION_DDOT": 0}, "tle": {"line1": "1 38755U 12047A   25339.94677160  .00000803  00000+0  18229-3 0  9999", "line2": "2 38755  98.1582  44.8561 0001063 101.3435 258.7884 14.58593232704889"}}, "geometry": {"type": "Point", "coordinates": [-139.85545654011773, -32.06213926074858]}}, {"type": "Feature", "properties": {"norad_id": 39019, "name": "PLEIADES 1B", "group": "resource", "lat": 66.54401786356362, "lon": -107.488189825717, "alt_km": 690.607352270592, "timestamp": "2025-12-06T09:34:16.574826+00:00", "meta": {"OBJECT_NAME": "PLEIADES 1B", "OBJECT_ID": "2012-068A", "EPOCH": "2025-12-05T21:32:03.950016", "MEAN_MOTION": 14.58542534, "ECCENTRICITY": 0.00012319, "INCLINATION": 98.1804, "RA_OF_ASC_NODE": 52.6569, "ARG_OF_PERICENTER": 87.0343, "MEAN_ANOMALY": 273.0997, "EPHEMERIS_TYPE": 0, "CLASSIFICATION_TYPE": "U", "NORAD_CAT_ID": 39019, "ELEMENT_SET_NO": 999, "REV_AT_EPOCH": 69267, "BSTAR": 0.00018868075, "MEAN_MOTION_DOT": 8.31e-06, "MEAN_MOTION_DDOT": 0}, "tle": {"line1": "1 39019U 12068A   25339.89726794  .00000831  00000+0  18868-3 0  9998", "line2": "2 39019  98.1804  52.6569 0001231  87.0343 273.0997 14.58542534692677"}}, "geometry": {"type": "Point", "coordinates": [-107.488189825717, 66.54401786356362]}}, {"type": "Feature", "properties": {"norad_id": 39030, "name": "GOKTURK 2", "group": "resource", "lat": -53.27112946777764, "lon": -167.20234805025692, "alt_km": 651.8059144585814, "timestamp": "2025-12-06T09:34:16.574837+00:00", "meta": {"OBJECT_NAME": "GOKTURK 2", "OBJECT_ID": "2012-073A", "EPOCH": "2025-12-05T22:25:15.275712", "MEAN_MOTION": 14.75276392, "ECCENTRICITY": 8.459e-05, "INCLINATION": 97.6905, "RA_OF_ASC_NODE": 181.9224, "ARG_OF_PERICENTER": 100.1445, "MEAN_ANOMALY": 259.9861, "EPHEMERIS_TYPE": 0, "CLASSIFICATION_TYPE": "U", "NORAD_CAT_ID": 39030, "ELEMENT_SET_NO": 999, "REV_AT_EPOCH": 69601, "BSTAR": 0.00017909929, "MEAN_MOTION_DOT": 1.165e-05, "MEAN_MOTION_DDOT": 0}, "tle": {"line1": "1 39030U 12073A   25339.93420458  .00001165  00000+0  17910-3 0  9998", "line2": "2 39030  97.6905 181.9224 0000845 100.1445 259.9861 14.75276392696010"}}, "geometry": {"type": "Point", "coordinates": [-167.20234805025692, -53.27112946777764]}}, {"type": "Feature", "properties": {"norad_id": 39084, "name": "LANDSAT 8", "group": "resource", "lat": -44.681738598728955, "lon": 56.772405630931715, "alt_km": 709.7682187156588, "timestamp": "2025-12-06T09:34:16.574847+00:00", "meta": {"OBJECT_NAME": "LANDSAT 8", "OBJECT_ID": "2013-008A", "EPOCH": "2025-12-05T22:14:31.664832", "MEAN_MOTION": 14.57103543, "ECCENTRICITY": 0.00011544, "INCLINATION": 98.208, "RA_OF_ASC_NODE": 48.1006, "ARG_OF_PERICENTER": 85.8618, "MEAN_ANOMALY": 274.2712, "EPHEMERIS_TYPE": 0, "CLASSIFICATION_TYPE": "U", "NORAD_CAT_ID": 39084, "ELEMENT_SET_NO": 999, "REV_AT_EPOCH": 66975, "BSTAR": 0.00018590326, "MEAN_MOTION_DOT": 7.92e-06, "MEAN_MOTION_DDOT": 0}, "tle": {"line1": "1 39084U 13008A   25339.92675538  .00000792  00000+0  18590-3 0  9996", "line2": "2 39084  98.2080  48.1006 0001154  85.8618 274.2712 14.57103543669750"}}, "geometry": {"type": "Point", "coordinates": [56.772405630931715, -44.681738598728955]}}, {"type": "Feature", "properties": {"norad_id": 39086, "name": "SARAL", "group": "resource", "lat": 43.775767133885076, "lon": -7.299861421869194, "alt_km": 776.9613908944802, "timestamp": "2025-12-06T09:34:16.574857+00:00", "meta": {"OBJECT_NAME": "SARAL", "OBJECT_ID": "2013-009A", "EPOCH": "2025-12-05T22:53:04.852032", "MEAN_MOTION": 14.32753369, "ECCENTRICITY": 0.00027078, "INCLINATION": 98.5506, "RA_OF_ASC_NODE": 163.9725, "ARG_OF_PERICENTER": 121.7273, "MEAN_ANOMALY": 238.4176, "EPHEMERIS_TYPE": 0, "CLASSIFICATION_TYPE": "U", "NORAD_CAT_ID": 39086, "ELEMENT_SET_NO": 999, "REV_AT_EPOCH": 66793, "BSTAR": 0.00010748238, "MEAN_MOTION_DOT": 2.49e-06, "MEAN_MOTION_DDOT": 0}, "tle": {"line1": "1 39086U 13009A   25339.95352838  .00000249  00000+0  10748-3 0  9991", "line2": "2 39086  98.5506 163.9725 0002707 121.7273 238.4176 14.32753369667938"}}, "geometry": {"type": "Point", "coordinates": [-7.299861421869194, 43.775767133885076]}}, {"type": "Feature", "properties": {"norad_id": 39150, "name": "GAOFEN-1", "group": "resource", "lat": -4.410611130918026, "lon": 51.786270958326256, "alt_km": 656.1071434162341, "timestamp": "2025-12-06T09:34:16.574867+00:00", "meta": {"OBJECT_NAME": "GAOFEN-1", "OBJECT_ID": "2013-018A", "EPOCH": "2025-12-05T22:12:23.010912", "MEAN_MOTION": 14.76515214, "ECCENTRICITY": 0.00178177, "INCLINATION": 97.9335, "RA_OF_ASC_NODE": 50.7048, "ARG_OF_PERICENTER": 164.3584, "MEAN_ANOMALY": 195.818, "EPHEMERIS_TYPE": 0, "CLASSIFICATION_TYPE": "U", "NORAD_CAT_ID": 39150, "ELEMENT_SET_NO": 999, "REV_AT_EPOCH": 67972, "BSTAR": 0.00023018539, "MEAN_MOTION_DOT": 1.557e-05, "MEAN_MOTION_DDOT": 0}, "tle": {"line1": "1 39150U 13018A   25339.92526633  .00001557  00000+0  23019-3 0  9994", "line2": "2 39150  97.9335  50.7048 0017817 164.3584 195.8180 14.76515214679724"}}, "geometry": {"type": "Point", "coordinates": [51.786270958326256, -4.410611130918026]}}, {"type": "Feature", "properties": {"norad_id": 39160, "name": "VNREDSAT 1", "group": "resource", "lat": -36.83762173921808, "lon": 41.89579860082743, "alt_km": 684.1938788860516, "timestamp": "2025-12-06T09:34:16.574878+00:00", "meta": {"OBJECT_NAME": "VNREDSAT 1", "OBJECT_ID": "2013-021B", "EPOCH": "2025-12-05T22:15:56.951136", "MEAN_MOTION": 14.64906757, "ECCENTRICITY": 0.00013369, "INCLINATION": 97.9383, "RA_OF_ASC_NODE": 35.4412, "ARG_OF_PERICENTER": 83.3136, "MEAN_ANOMALY": 276.822, "EPHEMERIS_TYPE": 0, "CLASSIFICATION_TYPE": "U", "NORAD_CAT_ID": 39160, "ELEMENT_SET_NO": 999, "REV_AT_EPOCH": 67199, "BSTAR": 0.00025140477, "MEAN_MOTION_DOT": 1.299e-05, "MEAN_MOTION_DDOT": 0}, "tle": {"line1": "1 39160U 13021B   25339.92774249  .00001299  00000+0  25140-3 0  9997", "line2": "2 39160  97.9383  35.4412 0001336  83.3136 276.8220 14.64906757671994"}}, "geometry": {"type": "Point", "coordinates": [41.89579860082743, -36.83762173921808]}}, {"type": "Feature", "properties": {"norad_id": 39227, "name": "ARIRANG-5 (KOMPSAT-5)", "group": "resource", "lat": -38.689727716056964, "lon": -21.35717848585589, "alt_km": 561.7575926975251, "timestamp": "2025-12-06T09:34:16.574888+00:00", "meta": {"OBJECT_NAME": "ARIRANG-5 (KOMPSAT-5)", "OBJECT_ID": "2013-042A", "EPOCH": "2025-12-05T23:01:26.225184", "MEAN_MOTION": 15.04517629, "ECCENTRICITY": 0.00040425, "INCLINATION": 97.615, "RA_OF_ASC_NODE": 164.3605, "ARG_OF_PERICENTER": 76.1619, "MEAN_ANOMALY": 284.0057, "EPHEMERIS_TYPE": 0, "CLASSIFICATION_TYPE": "U", "NORAD_CAT_ID": 39227, "ELEMENT_SET_NO": 999, "REV_AT_EPOCH": 67480, "BSTAR": 0.00019445851, "MEAN_MOTION_DOT": 2.663e-05, "MEAN_MOTION_DDOT": 0}, "tle": {"line1": "1 39227U 13042A   25339.95933131  .00002663  00000+0  19446-3 0  9992", "line2": "2 39227  97.6150 164.3605 0004042  76.1619 284.0057 15.04517629674809"}}, "geometry": {"type": "Point", "coordinates": [-21.35717848585589, -38.689727716056964]}}, {"type": "Feature", "properties": {"norad_id": 39418, "name": "SKYSAT-A", "group": "resource", "lat": 69.8429228525881, "lon": 10.030561553332193, "alt_km": 538.7533283399262, "timestamp": "2025-12-06T09:34:16.574898+00:00", "meta": {"OBJECT_NAME": "SKYSAT-A", "OBJECT_ID": "2013-066C", "EPOCH": "2025-12-05T20:32:46.034304", "MEAN_MOTION": 15.11526196, "ECCENTRICITY": 0.00204737, "INCLINATION": 97.4115, "RA_OF_ASC_NODE": 30.2742, "ARG_OF_PERICENTER": 262.0026, "MEAN_ANOMALY": 97.8881, "EPHEMERIS_TYPE": 0, "CLASSIFICATION_TYPE": "U", "NORAD_CAT_ID": 39418, "ELEMENT_SET_NO": 999, "REV_AT_EPOCH": 65926, "BSTAR": 0.00037408868, "MEAN_MOTION_DOT": 6.308e-05, "MEAN_MOTION_DDOT": 0}, "tle": {"line1": "1 39418U 13066C   25339.85608836  .00006308  00000+0  37409-3 0  9999", "line2": "2 39418  97.4115  30.2742 0020473 262.0026  97.8881 15.11526196659262"}}, "geometry": {"type": "Point", "coordinates": [10.030561553332193, 69.8429228525881]}}, {"type": "Feature", "properties": {"norad_id": 39419, "name": "DUBAISAT-2", "group": "resource", "lat": -71.16293230406048, "lon": -6.463110594638715, "alt_km": 544.6108930212758, "timestamp": "2025-12-06T09:34:16.574909+00:00", "meta": {"OBJECT_NAME": "DUBAISAT-2", "OBJECT_ID": "2013-066D", "EPOCH": "2025-12-05T22:44:47.807520", "MEAN_MOTION": 15.08253361, "ECCENTRICITY": 0.00111932, "INCLINATION": 97.4437, "RA_OF_ASC_NODE": 330.5652, "ARG_OF_PERICENTER": 346.0205, "MEAN_ANOMALY": 14.0713, "EPHEMERIS_TYPE": 0, "CLASSIFICATION_TYPE": "U", "NORAD_CAT_ID": 39419, "ELEMENT_SET_NO": 999, "REV_AT_EPOCH": 65724, "BSTAR": 0.00048218052, "MEAN_MOTION_DOT": 7.421e-05, "MEAN_MOTION_DDOT": 0}, "tle": {"line1": "1 39419U 13066D   25339.94777555  .00007421  00000+0  48218-3 0  9992", "line2": "2 39419  97.4437 330.5652 0011193 346.0205  14.0713 15.08253361657245"}}, "geometry": {"type": "Point", "coordinates": [-6.463110594638715, -71.16293230406048]}}]}